[Satellite]
VERSION=1.1
NAME=GPS BIIRM-2 (PRN 31)
NICKNAME=GPS BIIRM-2 (PRN 31)
TLE1=1 29486U 06042A   19317.57801675  .00000008  00000-0  00000+0 0  9998
TLE2=2 29486  54.9388 247.0584 0095213   2.1443 175.7377  2.00556714 96251
STATUS=0
